STARLINK-36640          
1 67600U 26018M   26057.17888012  .00292675  00000+0  18954-2 0  9990
2 67600  97.2854 122.3858 0001982 116.7234 243.4234 15.75204272  5494
STARLINK-36635          
1 67601U 26018N   26057.14712034  .00121685  00000+0  80227-3 0  9993
2 67601  97.2837 122.4303 0003184 127.4255 232.7301 15.75267889  5499
STARLINK-36631          
1 67602U 26018P   26057.16668981 -.00085974  00000+0 -58028-3 0  9993
2 67602  97.2844 122.4730 0001511  86.5707  70.4403 15.75231573  5492
STARLINK-36626          
1 67603U 26018Q   26057.15347386  .00133318  00000+0  87880-3 0  9998
2 67603  97.2846 122.4231 0001576  76.3648 283.7793 15.75242487  5490
STARLINK-36605          
1 67604U 26018R   26057.17112332  .00217306  00000+0  14206-2 0  9993
2 67604  97.2854 122.3975 0004561 343.7542  16.3576 15.75187939  5494
STARLINK-36281          
1 67605U 26018S   26057.16668981 -.01901962  00000+0 -12862-1 0  9995
2 67605  97.2848 122.5061 0001650  70.1728 167.2281 15.78097152  5544
STARLINK-35843          
1 67606U 26018T   26057.16547175  .00282234  00000+0  18310-2 0  9993
2 67606  97.2817 122.4011 0002975 110.1555 250.0030 15.75192030  5494
STARLINK-36351          
1 67607U 26018U   26057.15170874  .00194965  00000+0  12768-2 0  9995
2 67607  97.2847 122.4247 0000701 147.1093 213.0216 15.75219268  5499
STARLINK-36411          
1 67608U 26018V   26057.16668981 -.00098186  00000+0 -66320-3 0  9992
2 67608  97.2849 122.5006 0001443  83.1405 137.8603 15.75251813  5547
STARLINK-36312          
1 67609U 26018W   26057.14959387  .00189710  00000+0  12419-2 0  9995
2 67609  97.2854 122.4286 0000847  54.3932 305.7412 15.75242512  5499
STARLINK-36387          
1 67610U 26018X   26057.17992233  .00390829  00000+0  19464-2 0  9999
2 67610  97.2859 122.5377 0001751  73.7206 286.4254 15.80869327  5508
STARLINK-36636          
1 67611U 26018Y   26057.13300587  .00317694  00000+0  20278-2 0  9995
2 67611  97.2829 122.4432 0001929 138.2182 221.9230 15.75470674  5497
