CCSDS_OMM_VERS = 2.0
CREATION_DATE  = 
ORIGINATOR     = 

OBJECT_NAME    = STARLINK-36640
OBJECT_ID      = 2026-018M
CENTER_NAME    = EARTH
REF_FRAME      = TEME
TIME_SYSTEM    = UTC
MEAN_ELEMENT_THEORY = SGP/SGP4

EPOCH          = 2026-02-26T04:17:35.242368
MEAN_MOTION    = 15.75204272
ECCENTRICITY   = .0001982
INCLINATION    = 97.2854
RA_OF_ASC_NODE = 122.3858
ARG_OF_PERICENTER = 116.7234
MEAN_ANOMALY   = 243.4234

EPHEMERIS_TYPE = 0
CLASSIFICATION_TYPE = U
NORAD_CAT_ID   = 67600
ELEMENT_SET_NO = 999
REV_AT_EPOCH   = 549
BSTAR          = .18954E-2
MEAN_MOTION_DOT = .292675E-2
MEAN_MOTION_DDOT = 0

CCSDS_OMM_VERS = 2.0
CREATION_DATE  = 
ORIGINATOR     = 

OBJECT_NAME    = STARLINK-36635
OBJECT_ID      = 2026-018N
CENTER_NAME    = EARTH
REF_FRAME      = TEME
TIME_SYSTEM    = UTC
MEAN_ELEMENT_THEORY = SGP/SGP4

EPOCH          = 2026-02-26T03:31:51.197376
MEAN_MOTION    = 15.75267889
ECCENTRICITY   = .0003184
INCLINATION    = 97.2837
RA_OF_ASC_NODE = 122.4303
ARG_OF_PERICENTER = 127.4255
MEAN_ANOMALY   = 232.7301

EPHEMERIS_TYPE = 0
CLASSIFICATION_TYPE = U
NORAD_CAT_ID   = 67601
ELEMENT_SET_NO = 999
REV_AT_EPOCH   = 549
BSTAR          = .80227E-3
MEAN_MOTION_DOT = .121685E-2
MEAN_MOTION_DDOT = 0

CCSDS_OMM_VERS = 2.0
CREATION_DATE  = 
ORIGINATOR     = 

OBJECT_NAME    = STARLINK-36631
OBJECT_ID      = 2026-018P
CENTER_NAME    = EARTH
REF_FRAME      = TEME
TIME_SYSTEM    = UTC
MEAN_ELEMENT_THEORY = SGP/SGP4

EPOCH          = 2026-02-26T04:00:01.999584
MEAN_MOTION    = 15.75231573
ECCENTRICITY   = .0001511
INCLINATION    = 97.2844
RA_OF_ASC_NODE = 122.4730
ARG_OF_PERICENTER = 86.5707
MEAN_ANOMALY   = 70.4403

EPHEMERIS_TYPE = 0
CLASSIFICATION_TYPE = U
NORAD_CAT_ID   = 67602
ELEMENT_SET_NO = 999
REV_AT_EPOCH   = 549
BSTAR          = -.58028E-3
MEAN_MOTION_DOT = -.85974E-3
MEAN_MOTION_DDOT = 0

CCSDS_OMM_VERS = 2.0
CREATION_DATE  = 
ORIGINATOR     = 

OBJECT_NAME    = STARLINK-36626
OBJECT_ID      = 2026-018Q
CENTER_NAME    = EARTH
REF_FRAME      = TEME
TIME_SYSTEM    = UTC
MEAN_ELEMENT_THEORY = SGP/SGP4

EPOCH          = 2026-02-26T03:41:00.141504
MEAN_MOTION    = 15.75242487
ECCENTRICITY   = .0001576
INCLINATION    = 97.2846
RA_OF_ASC_NODE = 122.4231
ARG_OF_PERICENTER = 76.3648
MEAN_ANOMALY   = 283.7793

EPHEMERIS_TYPE = 0
CLASSIFICATION_TYPE = U
NORAD_CAT_ID   = 67603
ELEMENT_SET_NO = 999
REV_AT_EPOCH   = 549
BSTAR          = .8788E-3
MEAN_MOTION_DOT = .133318E-2
MEAN_MOTION_DDOT = 0

CCSDS_OMM_VERS = 2.0
CREATION_DATE  = 
ORIGINATOR     = 

OBJECT_NAME    = STARLINK-36605
OBJECT_ID      = 2026-018R
CENTER_NAME    = EARTH
REF_FRAME      = TEME
TIME_SYSTEM    = UTC
MEAN_ELEMENT_THEORY = SGP/SGP4

EPOCH          = 2026-02-26T04:06:25.054848
MEAN_MOTION    = 15.75187939
ECCENTRICITY   = .0004561
INCLINATION    = 97.2854
RA_OF_ASC_NODE = 122.3975
ARG_OF_PERICENTER = 343.7542
MEAN_ANOMALY   = 16.3576

EPHEMERIS_TYPE = 0
CLASSIFICATION_TYPE = U
NORAD_CAT_ID   = 67604
ELEMENT_SET_NO = 999
REV_AT_EPOCH   = 549
BSTAR          = .14206E-2
MEAN_MOTION_DOT = .217306E-2
MEAN_MOTION_DDOT = 0

CCSDS_OMM_VERS = 2.0
CREATION_DATE  = 
ORIGINATOR     = 

OBJECT_NAME    = STARLINK-36281
OBJECT_ID      = 2026-018S
CENTER_NAME    = EARTH
REF_FRAME      = TEME
TIME_SYSTEM    = UTC
MEAN_ELEMENT_THEORY = SGP/SGP4

EPOCH          = 2026-02-26T04:00:01.999584
MEAN_MOTION    = 15.78097152
ECCENTRICITY   = .000165
INCLINATION    = 97.2848
RA_OF_ASC_NODE = 122.5061
ARG_OF_PERICENTER = 70.1728
MEAN_ANOMALY   = 167.2281

EPHEMERIS_TYPE = 0
CLASSIFICATION_TYPE = U
NORAD_CAT_ID   = 67605
ELEMENT_SET_NO = 999
REV_AT_EPOCH   = 554
BSTAR          = -.12862E-1
MEAN_MOTION_DOT = -.1901962E-1
MEAN_MOTION_DDOT = 0

CCSDS_OMM_VERS = 2.0
CREATION_DATE  = 
ORIGINATOR     = 

OBJECT_NAME    = STARLINK-35843
OBJECT_ID      = 2026-018T
CENTER_NAME    = EARTH
REF_FRAME      = TEME
TIME_SYSTEM    = UTC
MEAN_ELEMENT_THEORY = SGP/SGP4

EPOCH          = 2026-02-26T03:58:16.759200
MEAN_MOTION    = 15.75192030
ECCENTRICITY   = .0002975
INCLINATION    = 97.2817
RA_OF_ASC_NODE = 122.4011
ARG_OF_PERICENTER = 110.1555
MEAN_ANOMALY   = 250.0030

EPHEMERIS_TYPE = 0
CLASSIFICATION_TYPE = U
NORAD_CAT_ID   = 67606
ELEMENT_SET_NO = 999
REV_AT_EPOCH   = 549
BSTAR          = .1831E-2
MEAN_MOTION_DOT = .282234E-2
MEAN_MOTION_DDOT = 0

CCSDS_OMM_VERS = 2.0
CREATION_DATE  = 
ORIGINATOR     = 

OBJECT_NAME    = STARLINK-36351
OBJECT_ID      = 2026-018U
CENTER_NAME    = EARTH
REF_FRAME      = TEME
TIME_SYSTEM    = UTC
MEAN_ELEMENT_THEORY = SGP/SGP4

EPOCH          = 2026-02-26T03:38:27.635136
MEAN_MOTION    = 15.75219268
ECCENTRICITY   = .0000701
INCLINATION    = 97.2847
RA_OF_ASC_NODE = 122.4247
ARG_OF_PERICENTER = 147.1093
MEAN_ANOMALY   = 213.0216

EPHEMERIS_TYPE = 0
CLASSIFICATION_TYPE = U
NORAD_CAT_ID   = 67607
ELEMENT_SET_NO = 999
REV_AT_EPOCH   = 549
BSTAR          = .12768E-2
MEAN_MOTION_DOT = .194965E-2
MEAN_MOTION_DDOT = 0

CCSDS_OMM_VERS = 2.0
CREATION_DATE  = 
ORIGINATOR     = 

OBJECT_NAME    = STARLINK-36411
OBJECT_ID      = 2026-018V
CENTER_NAME    = EARTH
REF_FRAME      = TEME
TIME_SYSTEM    = UTC
MEAN_ELEMENT_THEORY = SGP/SGP4

EPOCH          = 2026-02-26T04:00:01.999584
MEAN_MOTION    = 15.75251813
ECCENTRICITY   = .0001443
INCLINATION    = 97.2849
RA_OF_ASC_NODE = 122.5006
ARG_OF_PERICENTER = 83.1405
MEAN_ANOMALY   = 137.8603

EPHEMERIS_TYPE = 0
CLASSIFICATION_TYPE = U
NORAD_CAT_ID   = 67608
ELEMENT_SET_NO = 999
REV_AT_EPOCH   = 554
BSTAR          = -.6632E-3
MEAN_MOTION_DOT = -.98186E-3
MEAN_MOTION_DDOT = 0

CCSDS_OMM_VERS = 2.0
CREATION_DATE  = 
ORIGINATOR     = 

OBJECT_NAME    = STARLINK-36312
OBJECT_ID      = 2026-018W
CENTER_NAME    = EARTH
REF_FRAME      = TEME
TIME_SYSTEM    = UTC
MEAN_ELEMENT_THEORY = SGP/SGP4

EPOCH          = 2026-02-26T03:35:24.910368
MEAN_MOTION    = 15.75242512
ECCENTRICITY   = .0000847
INCLINATION    = 97.2854
RA_OF_ASC_NODE = 122.4286
ARG_OF_PERICENTER = 54.3932
MEAN_ANOMALY   = 305.7412

EPHEMERIS_TYPE = 0
CLASSIFICATION_TYPE = U
NORAD_CAT_ID   = 67609
ELEMENT_SET_NO = 999
REV_AT_EPOCH   = 549
BSTAR          = .12419E-2
MEAN_MOTION_DOT = .18971E-2
MEAN_MOTION_DDOT = 0

CCSDS_OMM_VERS = 2.0
CREATION_DATE  = 
ORIGINATOR     = 

OBJECT_NAME    = STARLINK-36387
OBJECT_ID      = 2026-018X
CENTER_NAME    = EARTH
REF_FRAME      = TEME
TIME_SYSTEM    = UTC
MEAN_ELEMENT_THEORY = SGP/SGP4

EPOCH          = 2026-02-26T04:19:05.289312
MEAN_MOTION    = 15.80869327
ECCENTRICITY   = .0001751
INCLINATION    = 97.2859
RA_OF_ASC_NODE = 122.5377
ARG_OF_PERICENTER = 73.7206
MEAN_ANOMALY   = 286.4254

EPHEMERIS_TYPE = 0
CLASSIFICATION_TYPE = U
NORAD_CAT_ID   = 67610
ELEMENT_SET_NO = 999
REV_AT_EPOCH   = 550
BSTAR          = .19464E-2
MEAN_MOTION_DOT = .390829E-2
MEAN_MOTION_DDOT = 0

CCSDS_OMM_VERS = 2.0
CREATION_DATE  = 
ORIGINATOR     = 

OBJECT_NAME    = STARLINK-36636
OBJECT_ID      = 2026-018Y
CENTER_NAME    = EARTH
REF_FRAME      = TEME
TIME_SYSTEM    = UTC
MEAN_ELEMENT_THEORY = SGP/SGP4

EPOCH          = 2026-02-26T03:11:31.707168
MEAN_MOTION    = 15.75470674
ECCENTRICITY   = .0001929
INCLINATION    = 97.2829
RA_OF_ASC_NODE = 122.4432
ARG_OF_PERICENTER = 138.2182
MEAN_ANOMALY   = 221.9230

EPHEMERIS_TYPE = 0
CLASSIFICATION_TYPE = U
NORAD_CAT_ID   = 67611
ELEMENT_SET_NO = 999
REV_AT_EPOCH   = 549
BSTAR          = .20278E-2
MEAN_MOTION_DOT = .317694E-2
MEAN_MOTION_DDOT = 0

